QIANFAN-33              
1 61566U 24185Q   25295.17229905  .00000638  00000+0  45217-3 0  9990
2 61566  88.9754  84.5519 0008612 119.8436 240.3598 13.96483194 61969
QIANFAN-34              
1 61567U 24185R   25295.13499462  .00000785  00000+0  50366-3 0  9998
2 61567  88.9738  84.1882 0007432 121.9067 238.2837 14.02236544 62128
QIANFAN-35              
1 61568U 24185S   25295.19034317  .00001393  00000+0  55783-3 0  9993
2 61568  88.9761  82.9248 0008763  95.1166 265.1029 14.27835164 62826
QIANFAN-36              
1 61569U 24185T   25295.14604481  .00000191  00000+0  25758-3 0  9998
2 61569  88.9739  86.4149 0006058 175.7891 184.3314 13.55566486 60933
QIANFAN-37              
1 62238U 24232B   25295.22146428  .00000176  00000+0  25374-3 0  9993
2 62238  89.0026  46.5183 0001350 124.1041 236.0238 13.50973112 92217
QIANFAN-38              
1 62239U 24232C   25295.24608586  .00000157  00000+0  22481-3 0  9999
2 62239  89.0033  46.4282 0013709 350.6908   9.3987 13.50981524 92278
QIANFAN-39              
1 62240U 24232D   25295.24552596  .00000963  00000+0  40274-3 0  9995
2 62240  89.0029  43.1859 0014386 242.8381 117.1345 14.25303097 94058
QIANFAN-40              
1 62241U 24232E   25295.20491317  .00000158  00000+0  22627-3 0  9993
2 62241  89.0061  46.0025 0012977 359.6870   0.4270 13.50981090 92631
